[{"OBJECT_NAME":"TYVAK-182A","OBJECT_ID":"2021-034D","EPOCH":"2026-03-09T17:04:17.866560","MEAN_MOTION":15.0515042,"ECCENTRICITY":0.00048625,"INCLINATION":97.5843,"RA_OF_ASC_NODE":129.3711,"ARG_OF_PERICENTER":316.565,"MEAN_ANOMALY":43.5193,"EPHEMERIS_TYPE":0,"CLASSIFICATION_TYPE":"U","NORAD_CAT_ID":48271,"ELEMENT_SET_NO":999,"REV_AT_EPOCH":26486,"BSTAR":0.00050672592,"MEAN_MOTION_DOT":7.163e-5,"MEAN_MOTION_DDOT":0},{"OBJECT_NAME":"STARLINK-34341","OBJECT_ID":"2025-112R","EPOCH":"2026-03-09T17:07:00.120576","MEAN_MOTION":15.05648529,"ECCENTRICITY":8.811e-5,"INCLINATION":97.602,"RA_OF_ASC_NODE":121.5765,"ARG_OF_PERICENTER":174.2519,"MEAN_ANOMALY":185.8719,"EPHEMERIS_TYPE":0,"CLASSIFICATION_TYPE":"U","NORAD_CAT_ID":64161,"ELEMENT_SET_NO":999,"REV_AT_EPOCH":4331,"BSTAR":7.2741545e-5,"MEAN_MOTION_DOT":9.89e-6,"MEAN_MOTION_DDOT":0}]
